[{"OBJECT_NAME":"STARLINK-33727","OBJECT_ID":"2025-087Y","EPOCH":"2026-03-09T16:39:49.271328","MEAN_MOTION":15.30239099,"ECCENTRICITY":5.862e-5,"INCLINATION":53.1582,"RA_OF_ASC_NODE":219.2984,"ARG_OF_PERICENTER":92.8431,"MEAN_ANOMALY":267.2637,"EPHEMERIS_TYPE":0,"CLASSIFICATION_TYPE":"U","NORAD_CAT_ID":63719,"ELEMENT_SET_NO":999,"REV_AT_EPOCH":4920,"BSTAR":0.00097595897,"MEAN_MOTION_DOT":0.00028693,"MEAN_MOTION_DDOT":0},{"OBJECT_NAME":"BLOCK DM-SL R\/B","OBJECT_ID":"2005-015B","EPOCH":"2026-03-09T20:05:01.779360","MEAN_MOTION":3.31279059,"ECCENTRICITY":0.65237939,"INCLINATION":0.1978,"RA_OF_ASC_NODE":343.8817,"ARG_OF_PERICENTER":26.1599,"MEAN_ANOMALY":358.3231,"EPHEMERIS_TYPE":0,"CLASSIFICATION_TYPE":"U","NORAD_CAT_ID":28645,"ELEMENT_SET_NO":999,"REV_AT_EPOCH":21458,"BSTAR":0.0016574112,"MEAN_MOTION_DOT":0.00016758,"MEAN_MOTION_DDOT":0}]
